{
  "type": "FeatureCollection",
  "name": "sudosan",
  "features": [
    {
      "type": "Feature",
      "properties": [
        "f",
        "sudosan"
      ],
      "geometry": {
        "type": "Polygon",
        "coordinates": [
          [
            [
              127.42764889064651,
              36.31471409187115
            ],
            [
              127.42746782746822,
              36.32372614979579
            ],
            [
              127.41633098633088,
              36.3235790809668
            ],
            [
              127.41651333051634,
              36.31456707121122
            ],
            [
              127.42764889064651,
              36.31471409187115
            ]
          ]
        ]
      }
    }
  ]
}